{"type": "FeatureCollection", "features": [ {"type": "Feature", "properties": {"norad_id": 31152, "name": "FENGYUN 1C DEB", "group": "fengyun-1c-debris", "lat": -46.203513507403116, "lon": 142.01935394827612, "alt_km": 871.680090659047, "timestamp": "2025-12-10T05:46:14.102865+00:00", "meta": {"OBJECT_NAME": "FENGYUN 1C DEB", "OBJECT_ID": "1999-025BHE", "EPOCH": "2025-12-09T11:01:02.346816", "MEAN_MOTION": 14.35845011, "ECCENTRICITY": 0.01303224, "INCLINATION": 98.414, "RA_OF_ASC_NODE": 330.1366, "ARG_OF_PERICENTER": 43.087, "MEAN_ANOMALY": 107.1543, "EPHEMERIS_TYPE": 0, "CLASSIFICATION_TYPE": "U", "NORAD_CAT_ID": 31152, "ELEMENT_SET_NO": 999, "REV_AT_EPOCH": 98001, "BSTAR": 0.00020573727, "MEAN_MOTION_DOT": 6.11e-06, "MEAN_MOTION_DDOT": 0}, "tle": {"line1": "1 31152U 99025BHE 25343.45905494  .00000611  00000+0  20574-3 0  9992", "line2": "2 31152  98.4140 330.1366 0130322  43.0870 107.1543 14.35845011980016"}}, "geometry": {"type": "Point", "coordinates": [142.01935394827612, -46.203513507403116]}}, {"type": "Feature", "properties": {"norad_id": 31155, "name": "FENGYUN 1C DEB", "group": "fengyun-1c-debris", "lat": 22.913444130653463, "lon": 49.303075027807274, "alt_km": 801.8961699489892, "timestamp": "2025-12-10T05:46:14.102875+00:00", "meta": {"OBJECT_NAME": "FENGYUN 1C DEB", "OBJECT_ID": "1999-025BHH", "EPOCH": "2025-12-09T04:05:10.000032", "MEAN_MOTION": 14.08303527, "ECCENTRICITY": 0.00889816, "INCLINATION": 99.042, "RA_OF_ASC_NODE": 52.0902, "ARG_OF_PERICENTER": 13.1, "MEAN_ANOMALY": 347.2451, "EPHEMERIS_TYPE": 0, "CLASSIFICATION_TYPE": "U", "NORAD_CAT_ID": 31155, "ELEMENT_SET_NO": 999, "REV_AT_EPOCH": 95537, "BSTAR": 0.0013568357, "MEAN_MOTION_DOT": 2.361e-05, "MEAN_MOTION_DDOT": 0}, "tle": {"line1": "1 31155U 99025BHH 25343.17025463  .00002361  00000+0  13568-2 0  9991", "line2": "2 31155  99.0420  52.0902 0088981  13.1000 347.2451 14.08303527955376"}}, "geometry": {"type": "Point", "coordinates": [49.303075027807274, 22.913444130653463]}}, {"type": "Feature", "properties": {"norad_id": 31157, "name": "FENGYUN 1C DEB", "group": "fengyun-1c-debris", "lat": -14.703284670949845, "lon": 145.60554381122455, "alt_km": 875.6231796018019, "timestamp": "2025-12-10T05:46:14.102885+00:00", "meta": {"OBJECT_NAME": "FENGYUN 1C DEB", "OBJECT_ID": "1999-025BHK", "EPOCH": "2025-12-09T17:02:08.473056", "MEAN_MOTION": 14.22555615, "ECCENTRICITY": 0.0100391, "INCLINATION": 98.4789, "RA_OF_ASC_NODE": 327.3382, "ARG_OF_PERICENTER": 335.3802, "MEAN_ANOMALY": 24.2601, "EPHEMERIS_TYPE": 0, "CLASSIFICATION_TYPE": "U", "NORAD_CAT_ID": 31157, "ELEMENT_SET_NO": 999, "REV_AT_EPOCH": 96940, "BSTAR": 0.00055433, "MEAN_MOTION_DOT": 1.261e-05, "MEAN_MOTION_DDOT": 0}, "tle": {"line1": "1 31157U 99025BHK 25343.70982029  .00001261  00000+0  55433-3 0  9998", "line2": "2 31157  98.4789 327.3382 0100391 335.3802  24.2601 14.22555615969409"}}, "geometry": {"type": "Point", "coordinates": [145.60554381122455, -14.703284670949845]}}, {"type": "Feature", "properties": {"norad_id": 31158, "name": "FENGYUN 1C DEB", "group": "fengyun-1c-debris", "lat": -81.20932647088567, "lon": 154.86445288197183, "alt_km": 811.4378347766979, "timestamp": "2025-12-10T05:46:14.102895+00:00", "meta": {"OBJECT_NAME": "FENGYUN 1C DEB", "OBJECT_ID": "1999-025BHL", "EPOCH": "2025-12-09T11:45:37.421280", "MEAN_MOTION": 14.33182755, "ECCENTRICITY": 0.00475394, "INCLINATION": 98.7798, "RA_OF_ASC_NODE": 62.0987, "ARG_OF_PERICENTER": 44.6824, "MEAN_ANOMALY": 315.8174, "EPHEMERIS_TYPE": 0, "CLASSIFICATION_TYPE": "U", "NORAD_CAT_ID": 31158, "ELEMENT_SET_NO": 999, "REV_AT_EPOCH": 64433, "BSTAR": 0.0025161115, "MEAN_MOTION_DOT": 6.96e-05, "MEAN_MOTION_DDOT": 0}, "tle": {"line1": "1 31158U 99025BHL 25343.49001645  .00006960  00000+0  25161-2 0  9996", "line2": "2 31158  98.7798  62.0987 0047539  44.6824 315.8174 14.33182755644334"}}, "geometry": {"type": "Point", "coordinates": [154.86445288197183, -81.20932647088567]}}, {"type": "Feature", "properties": {"norad_id": 31159, "name": "FENGYUN 1C DEB", "group": "fengyun-1c-debris", "lat": -10.691657897777864, "lon": 122.21065895601228, "alt_km": 533.8862300783576, "timestamp": "2025-12-10T05:46:14.102905+00:00", "meta": {"OBJECT_NAME": "FENGYUN 1C DEB", "OBJECT_ID": "1999-025BHM", "EPOCH": "2025-12-07T03:32:01.799520", "MEAN_MOTION": 15.37177071, "ECCENTRICITY": 0.01157472, "INCLINATION": 97.7995, "RA_OF_ASC_NODE": 300.4097, "ARG_OF_PERICENTER": 33.2484, "MEAN_ANOMALY": 327.5962, "EPHEMERIS_TYPE": 0, "CLASSIFICATION_TYPE": "U", "NORAD_CAT_ID": 31159, "ELEMENT_SET_NO": 999, "REV_AT_EPOCH": 99467, "BSTAR": 0.0020820653, "MEAN_MOTION_DOT": 0.00096035, "MEAN_MOTION_DDOT": 0}, "tle": {"line1": "1 31159U 99025BHM 25341.14724305  .00096035  00000+0  20821-2 0  9992", "line2": "2 31159  97.7995 300.4097 0115747  33.2484 327.5962 15.37177071994677"}}, "geometry": {"type": "Point", "coordinates": [122.21065895601228, -10.691657897777864]}}, {"type": "Feature", "properties": {"norad_id": 31160, "name": "FENGYUN 1C DEB", "group": "fengyun-1c-debris", "lat": -43.31230878647574, "lon": 49.21705002327083, "alt_km": 876.8294472436482, "timestamp": "2025-12-10T05:46:14.102915+00:00", "meta": {"OBJECT_NAME": "FENGYUN 1C DEB", "OBJECT_ID": "1999-025BHN", "EPOCH": "2025-12-08T09:22:15.594528", "MEAN_MOTION": 13.99591387, "ECCENTRICITY": 0.00565956, "INCLINATION": 99.0866, "RA_OF_ASC_NODE": 38.7038, "ARG_OF_PERICENTER": 268.242, "MEAN_ANOMALY": 91.2261, "EPHEMERIS_TYPE": 0, "CLASSIFICATION_TYPE": "U", "NORAD_CAT_ID": 31160, "ELEMENT_SET_NO": 999, "REV_AT_EPOCH": 69538, "BSTAR": 0.0002209191, "MEAN_MOTION_DOT": 2.82e-06, "MEAN_MOTION_DDOT": 0}, "tle": {"line1": "1 31160U 99025BHN 25342.39045827  .00000282  00000+0  22092-3 0  9999", "line2": "2 31160  99.0866  38.7038 0056595 268.2420  91.2261 13.99591387695381"}}, "geometry": {"type": "Point", "coordinates": [49.21705002327083, -43.31230878647574]}}, {"type": "Feature", "properties": {"norad_id": 31161, "name": "FENGYUN 1C DEB", "group": "fengyun-1c-debris", "lat": -80.83928718755062, "lon": 78.62980558274813, "alt_km": 864.2366411622206, "timestamp": "2025-12-10T05:46:14.102924+00:00", "meta": {"OBJECT_NAME": "FENGYUN 1C DEB", "OBJECT_ID": "1999-025BHP", "EPOCH": "2025-12-08T18:23:48.937632", "MEAN_MOTION": 14.09244187, "ECCENTRICITY": 0.00684845, "INCLINATION": 98.749, "RA_OF_ASC_NODE": 4.4647, "ARG_OF_PERICENTER": 1.4364, "MEAN_ANOMALY": 358.6991, "EPHEMERIS_TYPE": 0, "CLASSIFICATION_TYPE": "U", "NORAD_CAT_ID": 31161, "ELEMENT_SET_NO": 999, "REV_AT_EPOCH": 96046, "BSTAR": 0.00059564655, "MEAN_MOTION_DOT": 1.016e-05, "MEAN_MOTION_DDOT": 0}, "tle": {"line1": "1 31161U 99025BHP 25342.76653863  .00001016  00000+0  59565-3 0  9997", "line2": "2 31161  98.7490   4.4647 0068484   1.4364 358.6991 14.09244187960460"}}, "geometry": {"type": "Point", "coordinates": [78.62980558274813, -80.83928718755062]}}, {"type": "Feature", "properties": {"norad_id": 31165, "name": "FENGYUN 1C DEB", "group": "fengyun-1c-debris", "lat": 23.587998466852977, "lon": 39.889072111043156, "alt_km": 695.3101622521754, "timestamp": "2025-12-10T05:46:14.102934+00:00", "meta": {"OBJECT_NAME": "FENGYUN 1C DEB", "OBJECT_ID": "1999-025BHT", "EPOCH": "2025-12-09T10:10:32.278080", "MEAN_MOTION": 14.70967766, "ECCENTRICITY": 0.00692536, "INCLINATION": 98.885, "RA_OF_ASC_NODE": 42.9159, "ARG_OF_PERICENTER": 245.2255, "MEAN_ANOMALY": 137.2572, "EPHEMERIS_TYPE": 0, "CLASSIFICATION_TYPE": "U", "NORAD_CAT_ID": 31165, "ELEMENT_SET_NO": 999, "REV_AT_EPOCH": 98706, "BSTAR": 0.0017105562, "MEAN_MOTION_DOT": 0.00010837, "MEAN_MOTION_DDOT": 0}, "tle": {"line1": "1 31165U 99025BHT 25343.42398470  .00010837  00000+0  17106-2 0  9990", "line2": "2 31165  98.8850  42.9159 0069253 245.2255 137.2572 14.70967766987066"}}, "geometry": {"type": "Point", "coordinates": [39.889072111043156, 23.587998466852977]}}, {"type": "Feature", "properties": {"norad_id": 31168, "name": "FENGYUN 1C DEB", "group": "fengyun-1c-debris", "lat": -38.481097527534274, "lon": 122.42386743023103, "alt_km": 701.8600227850302, "timestamp": "2025-12-10T05:46:14.102944+00:00", "meta": {"OBJECT_NAME": "FENGYUN 1C DEB", "OBJECT_ID": "1999-025BHW", "EPOCH": "2025-12-09T15:13:07.655232", "MEAN_MOTION": 14.67306831, "ECCENTRICITY": 0.0108796, "INCLINATION": 98.8909, "RA_OF_ASC_NODE": 114.6185, "ARG_OF_PERICENTER": 73.1688, "MEAN_ANOMALY": 288.1413, "EPHEMERIS_TYPE": 0, "CLASSIFICATION_TYPE": "U", "NORAD_CAT_ID": 31168, "ELEMENT_SET_NO": 999, "REV_AT_EPOCH": 99075, "BSTAR": 0.001048, "MEAN_MOTION_DOT": 6.406e-05, "MEAN_MOTION_DDOT": 0}, "tle": {"line1": "1 31168U 99025BHW 25343.63411638  .00006406  00000+0  10480-2 0  9993", "line2": "2 31168  98.8909 114.6185 0108796  73.1688 288.1413 14.67306831990750"}}, "geometry": {"type": "Point", "coordinates": [122.42386743023103, -38.481097527534274]}}, {"type": "Feature", "properties": {"norad_id": 31169, "name": "FENGYUN 1C DEB", "group": "fengyun-1c-debris", "lat": -8.337756169346584, "lon": -170.79660722012707, "alt_km": 847.3127507142435, "timestamp": "2025-12-10T05:46:14.102954+00:00", "meta": {"OBJECT_NAME": "FENGYUN 1C DEB", "OBJECT_ID": "1999-025BHX", "EPOCH": "2025-12-07T14:36:12.590784", "MEAN_MOTION": 14.26378053, "ECCENTRICITY": 0.00576294, "INCLINATION": 99.1571, "RA_OF_ASC_NODE": 7.8072, "ARG_OF_PERICENTER": 32.3449, "MEAN_ANOMALY": 328.1242, "EPHEMERIS_TYPE": 0, "CLASSIFICATION_TYPE": "U", "NORAD_CAT_ID": 31169, "ELEMENT_SET_NO": 999, "REV_AT_EPOCH": 57031, "BSTAR": 0.0034039126, "MEAN_MOTION_DOT": 8.288e-05, "MEAN_MOTION_DDOT": 0}, "tle": {"line1": "1 31169U 99025BHX 25341.60847906  .00008288  00000+0  34039-2 0  9996", "line2": "2 31169  99.1571   7.8072 0057629  32.3449 328.1242 14.26378053570319"}}, "geometry": {"type": "Point", "coordinates": [-170.79660722012707, -8.337756169346584]}}]}